start=new Date('2023-02-27T00:00:00.000Z').valueOf();
sats=[{"SITE":"AFETR","ARG_OF_PERICENTER":"93.3291","RA_OF_ASC_NODE":"318.5578","ELEMENT_SET_NO":"999","INCLINATION":"53.2159","MEAN_ANOMALY":"266.7834","ECCENTRICITY":"0.00011630","COUNTRY_CODE":"US","OBJECT_NAME":"STARLINK-3690","MEAN_MOTION_DOT":"0.00015075","GP_ID":"227066643","MEAN_MOTION":"15.08859580","PERIOD":"95.436","PERIAPSIS":"538.881","EPHEMERIS_TYPE":"0","EPOCH":"2023-02-26T16:59:18.059424","RCS_SIZE":"LARGE","SEMIMAJOR_AXIS":"6917.821","REF_FRAME":"TEME","REV_AT_EPOCH":"5408","TIME_SYSTEM":"UTC","MEAN_ELEMENT_THEORY":"SGP4","NORAD_CAT_ID":"51964","OBJECT_ID":"2022-025J","MEAN_MOTION_DDOT":"0.0000000000000","FILE":"3843368","BSTAR":"0.00096273000000","TLE_LINE2":"2 51964  53.2159 318.5578 0001163  93.3291 266.7834 15.08859580 54089","TLE_LINE1":"1 51964U 22025J   23057.70784791  .00015075  00000-0  96273-3 0  9994","DECAY_DATE":null,"LAUNCH_DATE":"2022-03-09","CLASSIFICATION_TYPE":"U","APOAPSIS":"540.490","CENTER_NAME":"EARTH","OBJECT_TYPE":"PAYLOAD"},{"REF_FRAME":"TEME","SEMIMAJOR_AXIS":"6917.836","RCS_SIZE":"LARGE","EPOCH":"2023-02-26T17:15:12.140064","REV_AT_EPOCH":"5408","PERIOD":"95.437","EPHEMERIS_TYPE":"0","PERIAPSIS":"538.768","OBJECT_NAME":"STARLINK-3696","MEAN_MOTION_DOT":"0.00025615","ECCENTRICITY":"0.00013490","COUNTRY_CODE":"US","MEAN_MOTION":"15.08854606","GP_ID":"227067395","INCLINATION":"53.2139","MEAN_ANOMALY":"275.6445","SITE":"AFETR","RA_OF_ASC_NODE":"318.5011","ARG_OF_PERICENTER":"84.4701","ELEMENT_SET_NO":"999","APOAPSIS":"540.634","CLASSIFICATION_TYPE":"U","OBJECT_TYPE":"PAYLOAD","CENTER_NAME":"EARTH","TLE_LINE1":"1 51965U 22025K   23057.71889051  .00025615  00000-0  16210-2 0  9994","LAUNCH_DATE":"2022-03-09","DECAY_DATE":null,"TLE_LINE2":"2 51965  53.2139 318.5011 0001349  84.4701 275.6445 15.08854606 54084","BSTAR":"0.00162100000000","MEAN_MOTION_DDOT":"0.0000000000000","FILE":"3843368","NORAD_CAT_ID":"51965","TIME_SYSTEM":"UTC","MEAN_ELEMENT_THEORY":"SGP4","OBJECT_ID":"2022-025K"},{"OBJECT_NAME":"STARLINK-3699","MEAN_MOTION_DOT":"0.00022970","ECCENTRICITY":"0.00010840","COUNTRY_CODE":"US","MEAN_MOTION":"15.08855397","GP_ID":"227007239","INCLINATION":"53.2146","MEAN_ANOMALY":"258.2498","SITE":"AFETR","RA_OF_ASC_NODE":"320.9736","ELEMENT_SET_NO":"999","ARG_OF_PERICENTER":"101.8616","REF_FRAME":"TEME","EPOCH":"2023-02-26T04:05:37.389696","RCS_SIZE":"LARGE","SEMIMAJOR_AXIS":"6917.833","REV_AT_EPOCH":"5400","PERIOD":"95.437","EPHEMERIS_TYPE":"0","PERIAPSIS":"538.948","TLE_LINE2":"2 51966  53.2146 320.9736 0001084 101.8616 258.2498 15.08855397 54004","BSTAR":"0.00145600000000","FILE":"3841853","MEAN_MOTION_DDOT":"0.0000000000000","NORAD_CAT_ID":"51966","MEAN_ELEMENT_THEORY":"SGP4","TIME_SYSTEM":"UTC","OBJECT_ID":"2022-025L","CLASSIFICATION_TYPE":"U","APOAPSIS":"540.448","OBJECT_TYPE":"PAYLOAD","CENTER_NAME":"EARTH","TLE_LINE1":"1 51966U 22025L   23057.17057164  .00022970  00000-0  14560-2 0  9994","LAUNCH_DATE":"2022-03-09","DECAY_DATE":null},{"REV_AT_EPOCH":"5539","REF_FRAME":"TEME","EPOCH":"2023-02-26T17:32:29.854176","SEMIMAJOR_AXIS":"6739.558","RCS_SIZE":"LARGE","EPHEMERIS_TYPE":"0","PERIAPSIS":"360.291","PERIOD":"91.771","MEAN_MOTION":"15.69118116","GP_ID":"227066894","OBJECT_NAME":"STARLINK-3695","MEAN_MOTION_DOT":"0.00103353","COUNTRY_CODE":"US","ECCENTRICITY":"0.00016790","INCLINATION":"53.2030","MEAN_ANOMALY":"223.9312","ARG_OF_PERICENTER":"136.1840","SITE":"AFETR","ELEMENT_SET_NO":"999","RA_OF_ASC_NODE":"225.6853","OBJECT_TYPE":"PAYLOAD","CENTER_NAME":"EARTH","CLASSIFICATION_TYPE":"U","APOAPSIS":"362.555","LAUNCH_DATE":"2022-03-09","DECAY_DATE":null,"TLE_LINE1":"1 51967U 22025M   23057.73090109  .00103353  00000-0  86832-3 0  9990","TLE_LINE2":"2 51967  53.2030 225.6853 0001679 136.1840 223.9312 15.69118116 55393","BSTAR":"0.00086832000000","MEAN_MOTION_DDOT":"0.0000000000000","FILE":"3843368","OBJECT_ID":"2022-025M","NORAD_CAT_ID":"51967","MEAN_ELEMENT_THEORY":"SGP4","TIME_SYSTEM":"UTC"},{"MEAN_ANOMALY":"269.4741","INCLINATION":"53.2147","ARG_OF_PERICENTER":"90.6376","SITE":"AFETR","RA_OF_ASC_NODE":"318.0150","ELEMENT_SET_NO":"999","MEAN_MOTION":"15.08868981","GP_ID":"227067144","MEAN_MOTION_DOT":"0.00010701","OBJECT_NAME":"STARLINK-3681","ECCENTRICITY":"0.00010930","COUNTRY_CODE":"US","EPHEMERIS_TYPE":"0","PERIAPSIS":"538.901","PERIOD":"95.436","REV_AT_EPOCH":"5410","REF_FRAME":"TEME","RCS_SIZE":"LARGE","SEMIMAJOR_AXIS":"6917.792","EPOCH":"2023-02-26T19:54:09.681408","OBJECT_ID":"2022-025N","NORAD_CAT_ID":"51968","TIME_SYSTEM":"UTC","MEAN_ELEMENT_THEORY":"SGP4","BSTAR":"0.00068888000000","TLE_LINE2":"2 51968  53.2147 318.0150 0001093  90.6376 269.4741 15.08868981 54102","MEAN_MOTION_DDOT":"0.0000000000000","FILE":"3843368","LAUNCH_DATE":"2022-03-09","DECAY_DATE":null,"TLE_LINE1":"1 51968U 22025N   23057.82927872  .00010701  00000-0  68888-3 0  9992","OBJECT_TYPE":"PAYLOAD","CENTER_NAME":"EARTH","APOAPSIS":"540.413","CLASSIFICATION_TYPE":"U"},{"OBJECT_ID":"2022-025P","NORAD_CAT_ID":"51969","TIME_SYSTEM":"UTC","MEAN_ELEMENT_THEORY":"SGP4","BSTAR":"0.00118180000000","TLE_LINE2":"2 51969  53.1609 321.2216 0001369  75.4935 284.6208 15.08060946 53990","FILE":"3841853","MEAN_MOTION_DDOT":"0.0000000000000","LAUNCH_DATE":"2022-03-09","DECAY_DATE":null,"TLE_LINE1":"1 51969U 22025P   23057.13436814  .00018175  00000-0  11818-2 0  9991","OBJECT_TYPE":"PAYLOAD","CENTER_NAME":"EARTH","CLASSIFICATION_TYPE":"U","APOAPSIS":"543.075","MEAN_ANOMALY":"284.6208","INCLINATION":"53.1609","SITE":"AFETR","RA_OF_ASC_NODE":"321.2216","ARG_OF_PERICENTER":"75.4935","ELEMENT_SET_NO":"999","MEAN_MOTION":"15.08060946","GP_ID":"227007490","MEAN_MOTION_DOT":"0.00018175","OBJECT_NAME":"STARLINK-3680","COUNTRY_CODE":"US","ECCENTRICITY":"0.00013690","EPHEMERIS_TYPE":"0","PERIAPSIS":"541.180","PERIOD":"95.487","REV_AT_EPOCH":"5399","REF_FRAME":"TEME","EPOCH":"2023-02-26T03:13:29.407296","SEMIMAJOR_AXIS":"6920.263","RCS_SIZE":"LARGE"},{"RCS_SIZE":"LARGE","SEMIMAJOR_AXIS":"6917.841","EPOCH":"2023-02-26T18:08:11.525280","REF_FRAME":"TEME","REV_AT_EPOCH":"5409","PERIOD":"95.437","PERIAPSIS":"538.724","EPHEMERIS_TYPE":"0","COUNTRY_CODE":"US","ECCENTRICITY":"0.00014190","MEAN_MOTION_DOT":"0.00006538","OBJECT_NAME":"STARLINK-3677","GP_ID":"227068116","MEAN_MOTION":"15.08852868","SITE":"AFETR","ELEMENT_SET_NO":"999","RA_OF_ASC_NODE":"318.3474","ARG_OF_PERICENTER":"95.7527","INCLINATION":"53.2167","MEAN_ANOMALY":"264.3627","APOAPSIS":"540.688","CLASSIFICATION_TYPE":"U","CENTER_NAME":"EARTH","OBJECT_TYPE":"PAYLOAD","TLE_LINE1":"1 51970U 22025Q   23057.75568895  .00006538  00000-0  42837-3 0  9992","DECAY_DATE":null,"LAUNCH_DATE":"2022-03-09","FILE":"3843368","MEAN_MOTION_DDOT":"0.0000000000000","TLE_LINE2":"2 51970  53.2167 318.3474 0001419  95.7527 264.3627 15.08852868 54097","BSTAR":"0.00042837000000","MEAN_ELEMENT_THEORY":"SGP4","TIME_SYSTEM":"UTC","NORAD_CAT_ID":"51970","OBJECT_ID":"2022-025Q"},{"DECAY_DATE":null,"LAUNCH_DATE":"2022-03-09","TLE_LINE1":"1 51971U 22025R   23057.70420037 -.00011486  00000-0 -70582-3 0  9991","CENTER_NAME":"EARTH","OBJECT_TYPE":"PAYLOAD","CLASSIFICATION_TYPE":"U","APOAPSIS":"540.331","OBJECT_ID":"2022-025R","TIME_SYSTEM":"UTC","MEAN_ELEMENT_THEORY":"SGP4","NORAD_CAT_ID":"51971","MEAN_MOTION_DDOT":"0.0000000000000","FILE":"3843368","TLE_LINE2":"2 51971  53.2155 318.5785 0000606 118.6885 241.4168 15.08785730 54089","BSTAR":"-0.00070582000000","PERIAPSIS":"539.492","EPHEMERIS_TYPE":"0","PERIOD":"95.441","REV_AT_EPOCH":"5408","EPOCH":"2023-02-26T16:54:02.911968","RCS_SIZE":"MEDIUM","SEMIMAJOR_AXIS":"6918.046","REF_FRAME":"TEME","SITE":"AFETR","ARG_OF_PERICENTER":"118.6885","ELEMENT_SET_NO":"999","RA_OF_ASC_NODE":"318.5785","INCLINATION":"53.2155","MEAN_ANOMALY":"241.4168","GP_ID":"227066394","MEAN_MOTION":"15.08785730","ECCENTRICITY":"0.00006060","COUNTRY_CODE":"US","OBJECT_NAME":"STARLINK-3669","MEAN_MOTION_DOT":"-0.00011486"},{"MEAN_ELEMENT_THEORY":"SGP4","TIME_SYSTEM":"UTC","NORAD_CAT_ID":"51972","OBJECT_ID":"2022-025S","FILE":"3843368","MEAN_MOTION_DDOT":"0.0000000000000","BSTAR":"0.00283720000000","TLE_LINE2":"2 51972  53.2141 318.3640 0000856  84.4897 275.6193 15.08885390 54094","TLE_LINE1":"1 51972U 22025S   23057.75202160  .00045212  00000-0  28372-2 0  9993","DECAY_DATE":null,"LAUNCH_DATE":"2022-03-09","CLASSIFICATION_TYPE":"U","APOAPSIS":"540.199","CENTER_NAME":"EARTH","OBJECT_TYPE":"PAYLOAD","RA_OF_ASC_NODE":"318.3640","SITE":"AFETR","ELEMENT_SET_NO":"999","ARG_OF_PERICENTER":"84.4897","INCLINATION":"53.2141","MEAN_ANOMALY":"275.6193","COUNTRY_CODE":"US","ECCENTRICITY":"0.00008560","OBJECT_NAME":"STARLINK-3671","MEAN_MOTION_DOT":"0.00045212","GP_ID":"227066644","MEAN_MOTION":"15.08885390","PERIOD":"95.435","PERIAPSIS":"539.014","EPHEMERIS_TYPE":"0","EPOCH":"2023-02-26T18:02:54.666240","SEMIMAJOR_AXIS":"6917.742","RCS_SIZE":"LARGE","REF_FRAME":"TEME","REV_AT_EPOCH":"5409"},{"GP_ID":"227006990","MEAN_MOTION":"15.08853259","ECCENTRICITY":"0.00012010","COUNTRY_CODE":"US","OBJECT_NAME":"STARLINK-3679","MEAN_MOTION_DOT":"0.00017791","SITE":"AFETR","RA_OF_ASC_NODE":"321.0035","ARG_OF_PERICENTER":"97.0137","ELEMENT_SET_NO":"999","INCLINATION":"53.2160","MEAN_ANOMALY":"263.0992","REV_AT_EPOCH":"5400","EPOCH":"2023-02-26T03:55:01.293024","RCS_SIZE":"LARGE","SEMIMAJOR_AXIS":"6917.840","REF_FRAME":"TEME","PERIAPSIS":"538.874","EPHEMERIS_TYPE":"0","PERIOD":"95.437","FILE":"3841853","MEAN_MOTION_DDOT":"0.0000000000000","BSTAR":"0.00113270000000","TLE_LINE2":"2 51973  53.2160 321.0035 0001201  97.0137 263.0992 15.08853259 54005","OBJECT_ID":"2022-025T","MEAN_ELEMENT_THEORY":"SGP4","TIME_SYSTEM":"UTC","NORAD_CAT_ID":"51973","CENTER_NAME":"EARTH","OBJECT_TYPE":"PAYLOAD","CLASSIFICATION_TYPE":"U","APOAPSIS":"540.536","DECAY_DATE":null,"LAUNCH_DATE":"2022-03-09","TLE_LINE1":"1 51973U 22025T   23057.16320941  .00017791  00000-0  11327-2 0  9990"}];
